GOES 5                  
1 12472U 81049A   24111.72521840  .00000084  00000+0  00000+0 0  9996
2 12472  10.7732 321.1462 0000244 278.4448  88.7365  1.00273995114957
